ONEWEB-0029             
1 45445U 20020X   25096.75459348 -.00000392  00000+0 -11408-2 0  9994
2 45445  87.8795 108.0603 0002171  89.0951 271.0426 13.11419170245459
ONEWEB-0068             
1 45446U 20020Y   25097.04100628 -.00000172  00000+0 -52253-3 0  9992
2 45446  87.8794 107.9911 0002137  88.2322 271.9051 13.11414788245446
ONEWEB-0046             
1 45447U 20020Z   25096.95636960  .00000197  00000+0  52092-3 0  9991
2 45447  87.8790 108.0177 0002227  96.1456 263.9926 13.11415092245435
ONEWEB-0063             
1 45448U 20020AA  25097.06148387 -.00000377  00000+0 -10992-2 0  9990
2 45448  87.8792 107.9952 0002034  98.7495 261.3864 13.11417403245536
ONEWEB-0019             
1 45449U 20020AB  25097.03604661  .00000033  00000+0  57568-4 0  9999
2 45449  87.8797 108.0150 0001674  88.7815 271.3504 13.11417303245382
ONEWEB-0094             
1 45450U 20020AC  25097.02796868  .00000026  00000+0  33196-4 0  9994
2 45450  87.9005  92.7041 0002091  89.1297 271.0074 13.17646943248874
ONEWEB-0087             
1 45451U 20020AD  25096.76633167  .00000058  00000+0  12664-3 0  9998
2 45451  87.8791 108.0113 0002269  88.7995 271.3393 13.11419540245389
ONEWEB-0082             
1 45452U 20020AE  25096.76307786 -.00000072  00000+0 -23911-3 0  9999
2 45452  87.8795 108.0303 0002020  85.8741 274.2618 13.11419655245476
ONEWEB-0050             
1 45453U 20020AF  25096.62624141  .00004877  00000+0  45083-3 0  9991
2 45453  87.9985 313.5891 0005072  96.3061 263.8748 14.94392844275378
ONEWEB-0034             
1 45454U 20020AG  25097.01402228  .00000584  00000+0  16106-2 0  9990
2 45454  87.8794 107.9998 0001992  90.0399 270.0957 13.11416679245438
ONEWEB-0060             
1 45455U 20020AH  25096.75134189 -.00000502  00000+0 -14517-2 0  9995
2 45455  87.8797 108.0770 0002021  95.8804 264.2554 13.11417909245345
ONEWEB-0086             
1 45456U 20020AJ  25097.03944815 -.00000101  00000+0 -32175-3 0  9999
2 45456  87.8792 107.9938 0002341  86.5645 273.5750 13.11415050245447
ONEWEB-0088             
1 45457U 20020AK  25097.01740516  .00000621  00000+0  17155-2 0  9995
2 45457  87.8788 107.9507 0002160  92.0726 268.0649 13.11417119245383
ONEWEB-0102             
1 47258U 20100A   25096.90571312 -.00000118  00000+0 -36438-3 0  9997
2 47258  87.8825  77.4962 0001781  85.4542 274.6790 13.12441300207504
ONEWEB-0109             
1 47259U 20100B   25097.21878248  .00000087  00000+0  20677-3 0  9992
2 47259  87.8827  77.4018 0001817  84.1852 275.9483 13.12444654207372
ONEWEB-0110             
1 47260U 20100C   25096.93979209  .00000391  00000+0  10506-2 0  9998
2 47260  87.8822  77.4460 0001848  81.2188 278.9149 13.12441937207502
ONEWEB-0111             
1 47261U 20100D   25097.19930745 -.00000362  00000+0 -10414-2 0  9998
2 47261  87.8825  77.4049 0001859  85.7072 274.4269 13.12444137207376
ONEWEB-0114             
1 47262U 20100E   25097.23014532  .00000385  00000+0  10356-2 0  9999
2 47262  87.8821  77.4020 0001609  89.9101 270.2212 13.12442322207336
ONEWEB-0117             
1 47263U 20100F   25096.91707833  .00000253  00000+0  66755-3 0  9996
2 47263  87.8825  77.4526 0001963  84.4949 275.6403 13.12443981207305
ONEWEB-0118             
1 47264U 20100G   25097.17823172  .00000178  00000+0  45823-3 0  9990
2 47264  87.8826  77.4021 0001806  95.9572 264.1763 13.12442417207532
ONEWEB-0119             
1 47265U 20100H   25096.90085567 -.00000259  00000+0 -75503-3 0  9999
2 47265  87.8825  77.4968 0001913  83.9218 276.2128 13.12443787207478
ONEWEB-0120             
1 47266U 20100J   25097.22866568  .00000362  00000+0  96949-3 0  9994
2 47266  87.8827  77.4249 0001807  87.6303 272.5032 13.12444377207548
ONEWEB-0121             
1 47267U 20100K   25097.21714531 -.00000066  00000+0 -21851-3 0  9999
2 47267  87.8821  77.4026 0001989  81.7556 278.3798 13.12442856207455
ONEWEB-0122             
1 47268U 20100L   25096.90720382 -.00000088  00000+0 -27986-3 0  9995
2 47268  87.8821  77.4698 0001837  81.3600 278.7736 13.12444553207327
ONEWEB-0123             
1 47269U 20100M   25096.90247786 -.00000229  00000+0 -67244-3 0  9996
2 47269  87.8824  77.4949 0001927  88.2688 271.8661 13.12443510207460
ONEWEB-0124             
1 47270U 20100N   25096.96735413 -.00000365  00000+0 -10501-2 0  9997
2 47270  87.8827  77.4795 0002168  84.5124 275.6251 13.12443788207358
ONEWEB-0125             
1 47271U 20100P   25097.17337164  .00000221  00000+0  57763-3 0  9994
2 47271  87.8827  77.4007 0002171  91.2940 268.8437 13.12440962207441
ONEWEB-0126             
1 47272U 20100Q   25097.19850132 -.00000364  00000+0 -10475-2 0  9990
2 47272  87.8846  77.3950 0001819  87.0507 273.0829 13.12442105207511
ONEWEB-0127             
1 47273U 20100R   25096.93167432  .00000491  00000+0  13305-2 0  9990
2 47273  87.8825  77.4822 0001801  84.9202 275.2132 13.12445101207506
ONEWEB-0128             
1 47274U 20100S   25096.95438195 -.00000060  00000+0 -20253-3 0  9995
2 47274  87.8834  77.4986 0001920  78.4647 281.6697 13.12443411207522
ONEWEB-0129             
1 47275U 20100T   25097.23825312  .00000393  00000+0  10579-2 0  9995
2 47275  87.8827  77.3909 0000764 104.7497 255.3716 13.12441206207496
ONEWEB-0130             
1 47276U 20100U   25096.96086859 -.00000306  00000+0 -88656-3 0  9998
2 47276  87.8824  77.4489 0001886  82.4319 277.7024 13.12442334207425
ONEWEB-0131             
1 47277U 20100V   25096.95762553 -.00000186  00000+0 -55307-3 0  9993
2 47277  87.8827  77.4729 0001983  82.4950 277.6404 13.12442745207466
ONEWEB-0132             
1 47278U 20100W   25097.21554031 -.00000093  00000+0 -29517-3 0  9995
2 47278  87.8828  77.4230 0002181  84.7437 275.3940 13.12443226207398
ONEWEB-0133             
1 47279U 20100X   25096.92681911  .00000473  00000+0  12798-2 0  9993
2 47279  87.8822  77.4629 0001967  81.8333 278.3019 13.12443282207515
ONEWEB-0134             
1 47280U 20100Y   25097.20093155 -.00000308  00000+0 -89129-3 0  9996
2 47280  87.8820  77.3926 0001776  78.9488 281.1840 13.12444228207526
ONEWEB-0135             
1 47281U 20100Z   25096.94303314  .00000295  00000+0  78570-3 0  9999
2 47281  87.8829  77.4771 0001807  70.4691 289.6632 13.12439935207513
ONEWEB-0136             
1 47282U 20100AA  25097.19120487 -.00000269  00000+0 -78318-3 0  9999
2 47282  87.8826  77.3944 0001543  75.2234 284.9065 13.12442226207475
ONEWEB-0137             
1 47283U 20100AB  25096.92032181  .00000322  00000+0  86012-3 0  9991
2 47283  87.8819  77.4597 0001866  91.6875 268.4467 13.12444177207340
ONEWEB-0138             
1 47284U 20100AC  25096.89923419 -.00000268  00000+0 -78118-3 0  9990
2 47284  87.8820  77.4756 0001842  84.8177 275.3162 13.12443028207425
ONEWEB-0139             
1 47285U 20100AD  25097.01455329  .00000440  00000+0  11878-2 0  9995
2 47285  87.8826  77.4392 0001924  85.6611 274.4738 13.12442617207513
ONEWEB-0140             
1 47286U 20100AE  25096.96897937 -.00000416  00000+0 -11927-2 0  9994
2 47286  87.8819  77.4380 0001844  82.5677 277.5661 13.12443253207473
ONEWEB-0141             
1 47287U 20100AF  25097.24297755  .00000482  00000+0  13039-2 0  9996
2 47287  87.8823  77.3998 0001875  97.0056 263.1286 13.12442431207492
ONEWEB-0142             
1 47288U 20100AG  25097.25002315  .00025208  00000+0  69775-1 0  9994
2 47288  87.8832  77.3896 0001685  91.9509 352.9126 13.12510207207481
ONEWEB-0143             
1 47289U 20100AH  25096.93654668  .00000519  00000+0  14066-2 0  9995
2 47289  87.8824  77.4656 0001936  85.6911 274.4438 13.12442757207426
ONEWEB-0144             
1 47290U 20100AJ  25096.90896248 -.00000074  00000+0 -24200-3 0  9996
2 47290  87.8823  77.4527 0001619  87.1177 273.0136 13.12444428207341
ONEWEB-0145             
1 47291U 20100AK  25096.87976529 -.00000152  00000+0 -45891-3 0  9990
2 47291  87.8824  77.4839 0001832  85.9493 274.1845 13.12440108207534
ONEWEB-0146             
1 47292U 20100AL  25096.95274492 -.00000020  00000+0 -90837-4 0  9995
2 47292  87.8826  77.4553 0002314  82.6524 277.4867 13.12440864207455
ONEWEB-0147             
1 47293U 20100AM  25097.22365257  .00000133  00000+0  33561-3 0  9990
2 47293  87.8821  77.3840 0001784  77.3983 282.7345 13.12443514207386
ONEWEB-0115             
1 48042U 21025A   25096.83046113  .00000103  00000+0  24681-3 0  9993
2 48042  87.8955  46.9357 0001991  80.5313 279.6041 13.13471670196318
ONEWEB-0152             
1 48043U 21025B   25096.84399479  .00000328  00000+0  86218-3 0  9994
2 48043  87.8961  46.9431 0002104  78.9124 281.2242 13.13471614196272
ONEWEB-0153             
1 48044U 21025C   25096.89817166 -.00000134  00000+0 -40154-3 0  9994
2 48044  87.8962  46.9275 0001885  81.4131 278.7211 13.13472386196276
ONEWEB-0154             
1 48045U 21025D   25096.89478204 -.00000193  00000+0 -56305-3 0  9991
2 48045  87.8961  46.9305 0001931  79.1085 281.0261 13.13473349196232
ONEWEB-0116             
1 48046U 21025E   25096.85755642  .00000262  00000+0  68370-3 0  9992
2 48046  87.8964  46.9151 0002056  77.8312 282.3048 13.13471242196374
ONEWEB-0150             
1 48047U 21025F   25096.91001983  .00000181  00000+0  46045-3 0  9997
2 48047  87.8955  46.9067 0001832  85.0704 275.0634 13.13471686196279
ONEWEB-0107             
1 48048U 21025G   25096.91171945  .00000304  00000+0  79654-3 0  9993
2 48048  87.8957  46.9042 0001592  83.7299 276.4012 13.13471531196254
ONEWEB-0101             
1 48049U 21025H   25096.87446078 -.00000170  00000+0 -49995-3 0  9999
2 48049  87.8964  46.9448 0001819  77.5235 282.6097 13.13472495196225
ONEWEB-0113             
1 48050U 21025J   25096.91110347  .00000283  00000+0  73531-3 0  9999
2 48050  87.8960  46.9089 0002003  83.0909 277.0449 13.13989423196313
ONEWEB-0112             
1 48051U 21025K   25097.22151120  .00000317  00000+0  83186-3 0  9994
2 48051  87.8957  46.8398 0001915  83.3386 276.7961 13.13471853196379
